*******************************************************************************
JPL/HORIZONS                  1 Ceres (A801 AA)            2020-Jun-20 07:44:40
Rec #:       1 (+COV) Soln.date: 2020-May-20_11:11:55   # obs: 1030 (1995-2020)
 
IAU76/J2000 helio. ecliptic osc. elements (au, days, deg., period=Julian yrs):
 
  EPOCH=  2454061.5 ! 2006-Nov-22.00 (TDB)         Residual RMS= .24184
   EC= .07985681703215082  QR= 2.544823927206557   TP= 2454873.5774668744
   OM= 80.40822338295483   W=  73.18422155550952   IN= 10.58670363476912
   A= 2.765682531058295    MA= 185.9804488570544   ADIST= 2.986541134910033
   PER= 4.59951            N= .214289342           ANGMOM= .028516315
   DAN= 2.68599            DDN= 2.81303            L= 153.318086
   B= 10.1291284           MOID= 1.57983994        TP= 2009-Feb-11.0774668744
 
Asteroid physical parameters (km, seconds, rotational period in hours):
   GM= 62.6284             RAD= 469.7              ROTPER= 9.07417
   H= 3.4                  G= .120                 B-V= .713
                           ALBEDO= .090            STYP= C
 
ASTEROID comments: 
1: soln ref.= JPL#47, OCC=0           radar(60 delay, 0 Dop.)
2: source=ORB
*******************************************************************************
 
 
*******************************************************************************
Ephemeris / WWW_USER Sat Jun 20 07:44:40 2020 Pasadena, USA      / Horizons
*******************************************************************************
Target body name: 1 Ceres (A801 AA)               {source: JPL#47}
Center body name: Solar System Barycenter (0)     {source: DE431}
Center-site name: BODY CENTER
*******************************************************************************
Start time      : A.D. 1969-Jun-28 00:00:00.0000 TDB
Stop  time      : A.D. 2071-May-04 00:00:00.0000 TDB
Step-size       : 7200 minutes
*******************************************************************************
Center geodetic : 0.00000000,0.00000000,0.0000000 {E-lon(deg),Lat(deg),Alt(km)}
Center cylindric: 0.00000000,0.00000000,0.0000000 {E-lon(deg),Dxy(km),Dz(km)}
Center radii    : (undefined)                                                  
Small perturbers: Yes                             {source: SB431-N16}
Output units    : AU-D
Output type     : GEOMETRIC cartesian states
Output format   : 2 (position and velocity)
Reference frame : Ecliptic of J2000.0
*******************************************************************************
Initial IAU76/J2000 heliocentric ecliptic osculating elements (au, days, deg.):
  EPOCH=  2454061.5 ! 2006-Nov-22.00 (TDB)         Residual RMS= .24184        
   EC= .07985681703215082  QR= 2.544823927206557   TP= 2454873.5774668744      
   OM= 80.40822338295483   W=  73.18422155550952   IN= 10.58670363476912       
  Equivalent ICRF heliocentric equatorial cartesian coordinates (au, au/d):
   X= 2.732617277025615E+00  Y=-7.734822664676754E-01  Z=-9.207592896905449E-01
  VX= 3.368590810386608E-03 VY= 8.330863405401928E-03 VZ= 3.238410491551668E-03
Asteroid physical parameters (km, seconds, rotational period in hours):        
   GM= 62.6284             RAD= 469.7              ROTPER= 9.07417             
   H= 3.4                  G= .120                 B-V= .713                   
                           ALBEDO= .090            STYP= C                     
*******************************************************************************
            JDTDB,            Calendar Date (TDB),        delta-T,                      X,                      Y,                      Z,                     VX,                     VY,                     VZ,
******************************************************************************************************************************************************************************************************************
$$SOE
2473860.500000000, A.D. 2061-Feb-05 00:00:00.0000,      69.184870, -1.836884503351462E-01, -2.829447686004626E+00, -6.179092787047015E-02,  9.863156353879016E-03, -1.350495347535792E-03, -1.856547723463959E-03,
2473865.500000000, A.D. 2061-Feb-10 00:00:00.0000,      69.184986, -1.343453379466927E-01, -2.835738841022350E+00, -7.106304735726894E-02,  9.873545112083777E-03, -1.166019630685212E-03, -1.852202013352399E-03,
2473870.500000000, A.D. 2061-Feb-15 00:00:00.0000,      69.185095, -8.495841516918136E-02, -2.841108457321437E+00, -8.031197244207265E-02,  9.880684318508283E-03, -9.818888868370868E-04, -1.847270968850057E-03,
2473875.500000000, A.D. 2061-Feb-20 00:00:00.0000,      69.185197, -3.554387210595281E-02, -2.845558394345788E+00, -8.953479161329912E-02,  9.884597138392482E-03, -7.981567833122440E-04, -1.841760667436177E-03,
2473880.500000000, A.D. 2061-Feb-25 00:00:00.0000,      69.185290,  1.388221848431686E-02, -2.849090777418985E+00, -9.872862394199111E-02,  9.885307339033231E-03, -6.148760060061630E-04, -1.835677263742950E-03,
2473885.500000000, A.D. 2061-Mar-02 00:00:00.0000,      69.185372,  6.330390411861303E-02, -2.851707992857899E+00, -1.078906194536709E-01,  9.882839258200953E-03, -4.320982677940218E-04, -1.829026984024338E-03,
2473890.500000000, A.D. 2061-Mar-07 00:00:00.0000,      69.185442,  1.127053553646882E-01, -2.853412683129892E+00, -1.170179594730391E-01,  9.877217773376246E-03, -2.498743175435358E-04, -1.821816120826615E-03,
2473895.500000000, A.D. 2061-Mar-12 00:00:00.0000,      69.185501,  1.620708684645251E-01, -2.854207742056362E+00, -1.261078569425296E-01,  9.868468271867183E-03, -6.825394962197628E-05, -1.814051027858025E-03,
2473900.500000000, A.D. 2061-Mar-17 00:00:00.0000,      69.185550,  2.113848678107388E-01, -2.854096310064884E+00, -1.351575567157054E-01,  9.856616621881269E-03,  1.127139861797530E-04, -1.805738115056722E-03,
2473905.500000000, A.D. 2061-Mar-22 00:00:00.0000,      69.185589,  2.606319082808960E-01, -2.853081769491973E+00, -1.441643358264926E-01,  9.841689144632654E-03,  2.929815743202006E-04, -1.796883843857400E-03,
2473910.500000000, A.D. 2061-Mar-27 00:00:00.0000,      69.185616,  3.097966774350749E-01, -2.851167739938593E+00, -1.531255037352429E-01,  9.823712587534648E-03,  4.725018227203662E-04, -1.787494722656000E-03,
2473915.500000000, A.D. 2061-Apr-01 00:00:00.0000,      69.185630,  3.588639975820851E-01, -2.848358073680928E+00, -1.620384025526077E-01,  9.802714098462850E-03,  6.512286514351627E-04, -1.777577302469242E-03,
2473920.500000000, A.D. 2061-Apr-06 00:00:00.0000,      69.185630,  4.078188277195389E-01, -2.844656851139240E+00, -1.709004072421885E-01,  9.778721201019450E-03,  8.291168807445310E-04, -1.767138172783894E-03,
2473925.500000000, A.D. 2061-Apr-11 00:00:00.0000,      69.185618,  4.566462653525880E-01, -2.840068376407689E+00, -1.797089258028959E-01,  9.751761770723630E-03,  1.006122218691527E-03, -1.756183957591254E-03,
2473930.500000000, A.D. 2061-Apr-16 00:00:00.0000,      69.185596,  5.053315481958016E-01, -2.834597172847696E+00, -1.884613994319366E-01,  9.721864012068699E-03,  1.182201248133173E-03, -1.744721311602803E-03,
2473935.500000000, A.D. 2061-Apr-21 00:00:00.0000,      69.185564,  5.538600557623787E-01, -2.828247978747054E+00, -1.971553026693198E-01,  9.689056436388899E-03,  1.357311413425102E-03, -1.732756916640209E-03,
2473940.500000000, A.D. 2061-Apr-26 00:00:00.0000,      69.185520,  6.022173108446397E-01, -2.821025743046065E+00, -2.057881435247261E-01,  9.653367840508428E-03,  1.531411006966619E-03, -1.720297478188746E-03,
2473945.500000000, A.D. 2061-May-01 00:00:00.0000,      69.185463,  6.503889808899019E-01, -2.812935621130872E+00, -2.143574635875390E-01,  9.614827286273601E-03,  1.704459155788909E-03, -1.707349722111193E-03,
2473950.500000000, A.D. 2061-May-06 00:00:00.0000,      69.185394,  6.983608792765594E-01, -2.803982970693974E+00, -2.228608381208774E-01,  9.573464081117969E-03,  1.876415808041900E-03, -1.693920391534384E-03,
2473955.500000000, A.D. 2061-May-11 00:00:00.0000,      69.185317,  7.461189664955751E-01, -2.794173347663134E+00, -2.312958761405048E-01,  9.529307759643137E-03,  2.047241719120861E-03, -1.680016243915844E-03,
2473960.500000000, A.D. 2061-May-16 00:00:00.0000,      69.185231,  7.936493512421393E-01, -2.783512502200655E+00, -2.396602204795142E-01,  9.482388066084714E-03,  2.216898437416013E-03, -1.665644048283127E-03,
2473965.500000000, A.D. 2061-May-21 00:00:00.0000,      69.185137,  8.409382914217013E-01, -2.772006374774564E+00, -2.479515478396179E-01,  9.432734937590085E-03,  2.385348289818361E-03, -1.650810582636649E-03,
2473970.500000000, A.D. 2061-May-26 00:00:00.0000,      69.185035,  8.879721950743822E-01, -2.759661092302680E+00, -2.561675688298490E-01,  9.380378488292439E-03,  2.552554367064794E-03, -1.635522631512254E-03,
2473975.500000000, A.D. 2061-May-31 00:00:00.0000,      69.184924,  9.347376212217281E-01, -2.746482964370295E+00, -2.643060279934797E-01,  9.325348994168769E-03,  2.718480508957163E-03, -1.619786983701750E-03,
2473980.500000000, A.D. 2061-Jun-05 00:00:00.0000,      69.184806,  9.812212806396517E-01, -2.732478479522018E+00, -2.723647038239213E-01,  9.267676878650748E-03,  2.883091289478047E-03, -1.603610430128453E-03,
2473985.500000000, A.D. 2061-Jun-10 00:00:00.0000,      69.184682,  1.027410036561214E+00, -2.717654301628237E+00, -2.803414087703864E-01,  9.207392698942508E-03,  3.046352001841200E-03, -1.586999761872122E-03,
2473990.500000000, A.D. 2061-Jun-15 00:00:00.0000,      69.184555,  1.073290905312671E+00, -2.702017266326340E+00, -2.882339892340291E-01,  9.144527133000532E-03,  3.208228643544468E-03, -1.569961768334507E-03,
2473995.500000000, A.D. 2061-Jun-20 00:00:00.0000,      69.184425,  1.118851056886026E+00, -2.685574377536507E+00, -2.960403255552391E-01,  9.079110967162343E-03,  3.368687901508229E-03, -1.552503235535656E-03,
